IRIDIUM 63              
1 25286U 98021B   25312.43030626  .00000659  00000+0  21712-3 0  9995
2 25286  86.4022  21.6055 0002235  99.7101 260.4349 14.36692638444553
IRIDIUM 69              
1 25319U 98026A   25312.27699929  .00000952  00000+0  28935-3 0  9996
2 25319  86.4008  34.5006 0000337 217.1246 142.9930 14.41155668443811
IRIDIUM 71              
1 25320U 98026B   25312.47476728  .00000516  00000+0  15350-3 0  9993
2 25320  86.4010  29.0930 0002065  34.4750 325.6583 14.41285297444379
IRIDIUM 73              
1 25344U 98032C   25312.45823102  .00000902  00000+0  21876-3 0  9995
2 25344  86.4425 345.5601 0001890 107.5123 252.6289 14.51920455451493
IRIDIUM 82              
1 25467U 98051A   25312.25111037  .00057070  00000+0  11843-2 0  9997
2 25467  86.3651  38.4128 0068999 106.7911 254.0929 15.42889220446070
